{
  "type": "FeatureCollection",
  "features": [
    {
      "type": "Feature",
      "properties": {
        "norad_id": 58701,
        "name": "TIANMU-1 16",
        "group": "weather",
        "lat": 80.44675268865501,
        "lon": 114.38583067804971,
        "alt_km": 487.57770312243883,
        "timestamp": "2025-12-10T14:53:36.769871+00:00",
        "meta_object_name": "TIANMU-1 16",
        "meta_object_id": "2024-004B",
        "meta_epoch": "2025-12-10T06:38:57.286752",
        "meta_mean_motion": 15.24379005,
        "meta_eccentricity": 0.00045953,
        "meta_inclination": 97.4571,
        "meta_ra_of_asc_node": 165.1471,
        "meta_arg_of_pericenter": 307.3588,
        "meta_mean_anomaly": 52.723,
        "meta_ephemeris_type": 0,
        "meta_classification_type": "U",
        "meta_norad_cat_id": 58701,
        "meta_element_set_no": 999,
        "meta_rev_at_epoch": 10697,
        "meta_bstar": 0.00041122992,
        "meta_mean_motion_dot": 0.00010009,
        "meta_mean_motion_ddot": 0,
        "tle_line1": "1 58701U 24004B   25344.27705193  .00010009  00000+0  41123-3 0  9996",
        "tle_line2": "2 58701  97.4571 165.1471 0004595 307.3588  52.7230 15.24379005106976"
      },
      "geometry": {
        "type": "Point",
        "coordinates": [
          114.38583067804971,
          80.44675268865501
        ]
      }
    },
    {
      "type": "Feature",
      "properties": {
        "norad_id": 58702,
        "name": "TIANMU-1 17",
        "group": "weather",
        "lat": 11.658994608733487,
        "lon": -12.552673300709715,
        "alt_km": 496.0173065828785,
        "timestamp": "2025-12-10T14:53:36.769887+00:00",
        "meta_object_name": "TIANMU-1 17",
        "meta_object_id": "2024-004C",
        "meta_epoch": "2025-12-10T07:51:23.904864",
        "meta_mean_motion": 15.24424732,
        "meta_eccentricity": 0.00038265,
        "meta_inclination": 97.4604,
        "meta_ra_of_asc_node": 165.606,
        "meta_arg_of_pericenter": 311.0885,
        "meta_mean_anomaly": 49.0022,
        "meta_ephemeris_type": 0,
        "meta_classification_type": "U",
        "meta_norad_cat_id": 58702,
        "meta_element_set_no": 999,
        "meta_rev_at_epoch": 10697,
        "meta_bstar": 0.00042728136,
        "meta_mean_motion_dot": 0.00010416,
        "meta_mean_motion_ddot": 0,
        "tle_line1": "1 58702U 24004C   25344.32736001  .00010416  00000+0  42728-3 0  9999",
        "tle_line2": "2 58702  97.4604 165.6060 0003826 311.0885  49.0022 15.24424732106977"
      },
      "geometry": {
        "type": "Point",
        "coordinates": [
          -12.552673300709715,
          11.658994608733487
        ]
      }
    },
    {
      "type": "Feature",
      "properties": {
        "norad_id": 58703,
        "name": "TIANMU-1 18",
        "group": "weather",
        "lat": -77.34735301147788,
        "lon": -49.63019176981904,
        "alt_km": 498.5189057597281,
        "timestamp": "2025-12-10T14:53:36.769903+00:00",
        "meta_object_name": "TIANMU-1 18",
        "meta_object_id": "2024-004D",
        "meta_epoch": "2025-12-10T07:27:20.573856",
        "meta_mean_motion": 15.24413474,
        "meta_eccentricity": 0.00031608,
        "meta_inclination": 97.4622,
        "meta_ra_of_asc_node": 165.7842,
        "meta_arg_of_pericenter": 312.0622,
        "meta_mean_anomaly": 48.0346,
        "meta_ephemeris_type": 0,
        "meta_classification_type": "U",
        "meta_norad_cat_id": 58703,
        "meta_element_set_no": 999,
        "meta_rev_at_epoch": 10697,
        "meta_bstar": 0.00040939299,
        "meta_mean_motion_dot": 9.972e-05,
        "meta_mean_motion_ddot": 0,
        "tle_line1": "1 58703U 24004D   25344.31065479  .00009972  00000+0  40939-3 0  9990",
        "tle_line2": "2 58703  97.4622 165.7842 0003160 312.0622  48.0346 15.24413474106977"
      },
      "geometry": {
        "type": "Point",
        "coordinates": [
          -49.63019176981904,
          -77.34735301147788
        ]
      }
    },
    {
      "type": "Feature",
      "properties": {
        "norad_id": 58990,
        "name": "INSAT-3DS",
        "group": "weather",
        "lat": -0.004970442044050289,
        "lon": 25.080821603592284,
        "alt_km": 35790.075263968996,
        "timestamp": "2025-12-10T14:53:36.769925+00:00",
        "meta_object_name": "INSAT-3DS",
        "meta_object_id": "2024-033A",
        "meta_epoch": "2025-12-10T00:35:38.776704",
        "meta_mean_motion": 1.00269607,
        "meta_eccentricity": 0.00016163,
        "meta_inclination": 0.0292,
        "meta_ra_of_asc_node": 112.0604,
        "meta_arg_of_pericenter": 153.6709,
        "meta_mean_anomaly": 264.2623,
        "meta_ephemeris_type": 0,
        "meta_classification_type": "U",
        "meta_norad_cat_id": 58990,
        "meta_element_set_no": 999,
        "meta_rev_at_epoch": 4517,
        "meta_bstar": 0,
        "meta_mean_motion_dot": -1.52e-06,
        "meta_mean_motion_ddot": 0,
        "tle_line1": "1 58990U 24033A   25344.02475436 -.00000152  00000+0  00000+0 0  9999",
        "tle_line2": "2 58990   0.0292 112.0604 0001616 153.6709 264.2623  1.00269607 45178"
      },
      "geometry": {
        "type": "Point",
        "coordinates": [
          25.080821603592284,
          -0.004970442044050289
        ]
      }
    },
    {
      "type": "Feature",
      "properties": {
        "norad_id": 59051,
        "name": "METEOR-M2 4",
        "group": "weather",
        "lat": 47.46130228567768,
        "lon": 131.14199657980262,
        "alt_km": 816.106939470269,
        "timestamp": "2025-12-10T14:53:36.769946+00:00",
        "meta_object_name": "METEOR-M2 4",
        "meta_object_id": "2024-039A",
        "meta_epoch": "2025-12-10T07:31:25.257792",
        "meta_mean_motion": 14.22400685,
        "meta_eccentricity": 0.00071716,
        "meta_inclination": 98.6763,
        "meta_ra_of_asc_node": 301.2605,
        "meta_arg_of_pericenter": 5.4797,
        "meta_mean_anomaly": 354.6459,
        "meta_ephemeris_type": 0,
        "meta_classification_type": "U",
        "meta_norad_cat_id": 59051,
        "meta_element_set_no": 999,
        "meta_rev_at_epoch": 9241,
        "meta_bstar": 5.8526391e-05,
        "meta_mean_motion_dot": 8.7e-07,
        "meta_mean_motion_ddot": 0,
        "tle_line1": "1 59051U 24039A   25344.31348678  .00000087  00000+0  58526-4 0  9990",
        "tle_line2": "2 59051  98.6763 301.2605 0007171   5.4797 354.6459 14.22400685 92410"
      },
      "geometry": {
        "type": "Point",
        "coordinates": [
          131.14199657980262,
          47.46130228567768
        ]
      }
    },
    {
      "type": "Feature",
      "properties": {
        "norad_id": 60133,
        "name": "GOES 19",
        "group": "weather",
        "lat": -0.0037300092896096573,
        "lon": -132.2040805041768,
        "alt_km": 35785.21630739444,
        "timestamp": "2025-12-10T14:53:36.769976+00:00",
        "meta_object_name": "GOES 19",
        "meta_object_id": "2024-119A",
        "meta_epoch": "2025-12-10T04:15:38.659392",
        "meta_mean_motion": 1.00271292,
        "meta_eccentricity": 0.00013489,
        "meta_inclination": 0.0042,
        "meta_ra_of_asc_node": 252.4187,
        "meta_arg_of_pericenter": 54.9848,
        "meta_mean_anomaly": 120.4829,
        "meta_ephemeris_type": 0,
        "meta_classification_type": "U",
        "meta_norad_cat_id": 60133,
        "meta_element_set_no": 999,
        "meta_rev_at_epoch": 506,
        "meta_bstar": 0,
        "meta_mean_motion_dot": -2.45e-06,
        "meta_mean_motion_ddot": 0,
        "tle_line1": "1 60133U 24119A   25344.17753078 -.00000245  00000+0  00000+0 0  9996",
        "tle_line2": "2 60133   0.0042 252.4187 0001348  54.9848 120.4829  1.00271292  5065"
      },
      "geometry": {
        "type": "Point",
        "coordinates": [
          -132.2040805041768,
          -0.0037300092896096573
        ]
      }
    },
    {
      "type": "Feature",
      "properties": {
        "norad_id": 65815,
        "name": "FENGYUN 3H",
        "group": "weather",
        "lat": 29.129157918001432,
        "lon": -80.61392721221706,
        "alt_km": 823.9902420932967,
        "timestamp": "2025-12-10T14:53:36.769992+00:00",
        "meta_object_name": "FENGYUN 3H",
        "meta_object_id": "2025-219A",
        "meta_epoch": "2025-12-10T06:17:56.480928",
        "meta_mean_motion": 14.19903676,
        "meta_eccentricity": 6.043e-05,
        "meta_inclination": 98.6582,
        "meta_ra_of_asc_node": 283.9067,
        "meta_arg_of_pericenter": 87.3056,
        "meta_mean_anomaly": 272.819,
        "meta_ephemeris_type": 0,
        "meta_classification_type": "U",
        "meta_norad_cat_id": 65815,
        "meta_element_set_no": 999,
        "meta_rev_at_epoch": 1057,
        "meta_bstar": 0.00010951611,
        "meta_mean_motion_dot": 1.89e-06,
        "meta_mean_motion_ddot": 0,
        "tle_line1": "1 65815U 25219A   25344.26245927  .00000189  00000+0  10952-3 0  9996",
        "tle_line2": "2 65815  98.6582 283.9067 0000604  87.3056 272.8190 14.19903676 10577"
      },
      "geometry": {
        "type": "Point",
        "coordinates": [
          -80.61392721221706,
          29.129157918001432
        ]
      }
    }
  ]
}